PANDORA
1 67395U 80229J   26054.67417824  .00000000  00000-0  37770-3 0    07
2 67395  97.8041  55.1243 0006224 131.4152 320.9254 14.87850387    08
